*******************************************************************************
 Revised: September 28, 2017           Jupiter                              599
 
 PHYSICAL DATA (updated 2018-Aug-15):
  Mass x10^24 (kg)      = 1898.13+-.19    Density (g/cm^3)       =   1.326
  Equat. radius (1 bar) = 71492+-4 km     Polar radius (km)      =  66854+-10
  Vol. Mean Radius (km) = 69911+-6        Flattening             =   0.06487
  Geometric Albedo      = 0.52            Rocky core mass (Mc/M) =  0.0261
  Sid. rot. period (III)= 9h 55m 29.71 s  Sid. rot. rate (rad/s) =  0.00017585 
  Mean solar day, hrs   = ~9.9259         
  GM (km^3/s^2)         = 126686534.911   GM 1-sigma (km^3/s^2)  =  +-1.5
  Equ. grav, ge (m/s^2) = 24.79           Pol. grav, gp (m/s^2)  =  28.34
  Vis. magnitude V(1,0) = -9.40
  Vis. mag. (opposition)= -2.70           Obliquity to orbit     =  3.13 deg
  Sidereal orbit period = 11.861982204 y  Sidereal orbit period  = 4332.589 d
  Mean daily motion     = 0.0831294 deg/d Mean orbit speed, km/s = 13.0697
  Atmos. temp. (1 bar)  = 165+-5 K        Escape speed, km/s    =  59.5           
  A_roche(ice)/Rp       =  2.76           Hill's sphere rad. Rp  = 740
                                 Perihelion   Aphelion     Mean
  Solar Constant (W/m^2)         56           46           51
  Maximum Planetary IR (W/m^2)   13.7         13.4         13.6
  Minimum Planetary IR (W/m^2)   13.7         13.4         13.6
*******************************************************************************
 
 
*******************************************************************************
Ephemeris / WWW_USER Mon Aug  5 18:03:35 2019 Pasadena, USA      / Horizons    
*******************************************************************************
Target body name: Jupiter (599)                   {source: jup341}
Center body name: Earth (399)                     {source: DE431mx}
Center-site name: GEOCENTRIC
*******************************************************************************
Start time      : A.D. 2019-Jul-18 00:00:00.0000 UT      
Stop  time      : A.D. 2019-Jul-20 00:00:00.0000 UT      
Step-size       : 5 minutes
*******************************************************************************
Target pole/equ : IAU_JUPITER                     {West-longitude positive}
Target radii    : 71492.0 x 71492.0 x 66854.0 km  {Equator, meridian, pole}    
Center geodetic : 0.00000000,0.00000000,0.0000000 {E-lon(deg),Lat(deg),Alt(km)}
Center cylindric: 0.00000000,0.00000000,0.0000000 {E-lon(deg),Dxy(km),Dz(km)}
Center pole/equ : High-precision EOP model        {East-longitude positive}
Center radii    : 6378.1 x 6378.1 x 6356.8 km     {Equator, meridian, pole}    
Target primary  : Sun
Vis. interferer : MOON (R_eq= 1737.400) km        {source: DE431mx}
Rel. light bend : Sun, EARTH                      {source: DE431mx}
Rel. lght bnd GM: 1.3271E+11, 3.9860E+05 km^3/s^2                              
Atmos refraction: NO (AIRLESS)
RA format       : DEG
Time format     : CAL 
EOP file        : eop.190802.p191024                                           
EOP coverage    : DATA-BASED 1962-JAN-20 TO 2019-AUG-02. PREDICTS-> 2019-OCT-23
Units conversion: 1 au= 149597870.700 km, c= 299792.458 km/s, 1 day= 86400.0 s 
Table cut-offs 1: Elevation (-90.0deg=NO ),Airmass (>38.000=NO), Daylight (NO )
Table cut-offs 2: Solar elongation (  0.0,180.0=NO ),Local Hour Angle( 0.0=NO )
Table cut-offs 3: RA/DEC angular rate (     0.0=NO )                           
**************************************************************************************************************************************************************
 Date__(UT)__HR:MN:SC.fff     R.A._(ICRF/J2K)_DEC Ang-diam Ob-lon Ob-lat Sl-lon Sl-lat   NP.ang   NP.dist            delta      deldot    ObsEcLon    ObsEcLat
**************************************************************************************************************************************************************
$$SOE
 2019-Jul-18 09:15:00.000     253.90828 -22.12864 44.11783  12.50  -3.06   5.38  -2.92   5.9349    -20.60 4.46861544119368  16.7658755 255.3945932   0.4808617
 2019-Jul-18 09:20:00.000     253.90801 -22.12863 44.11750  15.52  -3.06   8.40  -2.92   5.9350    -20.60 4.46864906462832  16.7671762 255.3943444   0.4808508
 2019-Jul-18 09:25:00.000     253.90774 -22.12861 44.11717  18.54  -3.06  11.43  -2.92   5.9351    -20.60 4.46868269067120  16.7684767 255.3940956   0.4808399
 2019-Jul-18 09:30:00.000     253.90747 -22.12859 44.11684  21.57  -3.06  14.45  -2.92   5.9352    -20.60 4.46871631932217  16.7697773 255.3938469   0.4808290
 2019-Jul-18 09:35:00.000     253.90720 -22.12858 44.11651  24.59  -3.06  17.47  -2.92   5.9353    -20.60 4.46874995058114  16.7710777 255.3935982   0.4808181
 2019-Jul-18 09:40:00.000     253.90694 -22.12856 44.11617  27.61  -3.06  20.49  -2.92   5.9354    -20.60 4.46878358444793  16.7723781 255.3933496   0.4808072
 2019-Jul-18 09:45:00.000     253.90667 -22.12855 44.11584  30.64  -3.06  23.52  -2.92   5.9355    -20.60 4.46881722092243  16.7736784 255.3931010   0.4807963
 2019-Jul-18 09:50:00.000     253.90640 -22.12853 44.11551  33.66  -3.06  26.54  -2.92   5.9356    -20.60 4.46885086000449  16.7749786 255.3928524   0.4807855
 2019-Jul-18 09:55:00.000     253.90613 -22.12851 44.11518  36.68  -3.06  29.56  -2.92   5.9358    -20.60 4.46888450169397  16.7762788 255.3926038   0.4807746
 2019-Jul-18 10:00:00.000     253.90586 -22.12850 44.11485  39.70  -3.06  32.58  -2.92   5.9359    -20.60 4.46891814599073  16.7775789 255.3923553   0.4807637
 2019-Jul-18 10:05:00.000     253.90560 -22.12848 44.11451  42.73  -3.06  35.60  -2.92   5.9360    -20.60 4.46895179289463  16.7788789 255.3921068   0.4807528
 2019-Jul-18 10:10:00.000     253.90533 -22.12846 44.11418  45.75  -3.06  38.63  -2.92   5.9361    -20.60 4.46898544240548  16.7801788 255.3918583   0.4807419
 2019-Jul-18 10:15:00.000     253.90506 -22.12845 44.11385  48.77  -3.06  41.65  -2.92   5.9362    -20.60 4.46901909452316  16.7814787 255.3916099   0.4807310
 2019-Jul-18 10:20:00.000     253.90479 -22.12843 44.11352  51.79  -3.06  44.67  -2.92   5.9363    -20.60 4.46905274924751  16.7827785 255.3913615   0.4807201
 2019-Jul-18 10:25:00.000     253.90452 -22.12841 44.11318  54.82  -3.06  47.69  -2.92   5.9364    -20.60 4.46908640657835  16.7840782 255.3911131   0.4807092
 2019-Jul-18 10:30:00.000     253.90426 -22.12840 44.11285  57.84  -3.06  50.72  -2.92   5.9365    -20.60 4.46912006651554  16.7853778 255.3908648   0.4806984
 2019-Jul-18 10:35:00.000     253.90399 -22.12838 44.11252  60.86  -3.06  53.74  -2.92   5.9367    -20.60 4.46915372905889  16.7866773 255.3906165   0.4806875
 2019-Jul-18 10:40:00.000     253.90372 -22.12836 44.11219  63.89  -3.06  56.76  -2.92   5.9368    -20.60 4.46918739420824  16.7879768 255.3903682   0.4806766
 2019-Jul-18 10:45:00.000     253.90345 -22.12835 44.11186  66.91  -3.06  59.78  -2.92   5.9369    -20.60 4.46922106196341  16.7892761 255.3901200   0.4806657
 2019-Jul-18 10:50:00.000     253.90319 -22.12833 44.11152  69.93  -3.06  62.80  -2.92   5.9370    -20.60 4.46925473232423  16.7905754 255.3898718   0.4806548
 2019-Jul-18 10:55:00.000     253.90292 -22.12831 44.11119  72.95  -3.06  65.83  -2.92   5.9371    -20.60 4.46928840529052  16.7918746 255.3896236   0.4806439
 2019-Jul-18 11:00:00.000     253.90265 -22.12830 44.11086  75.98  -3.06  68.85  -2.92   5.9372    -20.60 4.46932208086210  16.7931737 255.3893755   0.4806330
 2019-Jul-18 11:05:00.000     253.90238 -22.12828 44.11053  79.00  -3.06  71.87  -2.92   5.9373    -20.59 4.46935575903878  16.7944727 255.3891274   0.4806221
 2019-Jul-18 11:10:00.000     253.90212 -22.12826 44.11019  82.02  -3.06  74.89  -2.92   5.9374    -20.59 4.46938943982036  16.7957716 255.3888793   0.4806113
 2019-Jul-18 11:15:00.000     253.90185 -22.12825 44.10986  85.05  -3.06  77.92  -2.92   5.9376    -20.59 4.46942312320667  16.7970704 255.3886312   0.4806004
 2019-Jul-18 11:20:00.000     253.90158 -22.12823 44.10953  88.07  -3.06  80.94  -2.92   5.9377    -20.59 4.46945680919749  16.7983691 255.3883832   0.4805895
 2019-Jul-18 11:25:00.000     253.90131 -22.12821 44.10920  91.09  -3.06  83.96  -2.92   5.9378    -20.59 4.46949049779266  16.7996677 255.3881352   0.4805786
 2019-Jul-18 11:30:00.000     253.90105 -22.12820 44.10886  94.11  -3.06  86.98  -2.92   5.9379    -20.59 4.46952418899194  16.8009662 255.3878873   0.4805677
 2019-Jul-18 11:35:00.000     253.90078 -22.12818 44.10853  97.14  -3.06  90.00  -2.92   5.9380    -20.59 4.46955788279514  16.8022646 255.3876394   0.4805568
 2019-Jul-18 11:40:00.000     253.90051 -22.12816 44.10820 100.16  -3.06  93.03  -2.92   5.9381    -20.59 4.46959157920206  16.8035629 255.3873915   0.4805459
 2019-Jul-18 11:45:00.000     253.90025 -22.12815 44.10787 103.18  -3.06  96.05  -2.92   5.9382    -20.59 4.46962527821248  16.8048611 255.3871436   0.4805350
 2019-Jul-18 11:50:00.000     253.89998 -22.12813 44.10753 106.20  -3.06  99.07  -2.92   5.9383    -20.59 4.46965897982620  16.8061592 255.3868958   0.4805241
 2019-Jul-18 11:55:00.000     253.89971 -22.12812 44.10720 109.23  -3.06 102.09  -2.92   5.9385    -20.59 4.46969268404301  16.8074572 255.3866480   0.4805133
 2019-Jul-18 12:00:00.000     253.89944 -22.12810 44.10687 112.25  -3.06 105.12  -2.92   5.9386    -20.59 4.46972639086267  16.8087550 255.3864002   0.4805024
 2019-Jul-18 12:05:00.000     253.89918 -22.12808 44.10654 115.27  -3.06 108.14  -2.92   5.9387    -20.59 4.46976010028496  16.8100528 255.3861525   0.4804915
 2019-Jul-18 12:10:00.000     253.89891 -22.12807 44.10620 118.30  -3.06 111.16  -2.92   5.9388    -20.59 4.46979381230967  16.8113504 255.3859048   0.4804806
 2019-Jul-18 12:15:00.000     253.89864 -22.12805 44.10587 121.32  -3.06 114.18  -2.92   5.9389    -20.59 4.46982752693657  16.8126480 255.3856571   0.4804697
